start=new Date('%Y-%m-27T00:00:00.000Z').valueOf();
sats=[{"MEAN_MOTION_DOT":"0.00000459","REV_AT_EPOCH":"8973","RCS_SIZE":"LARGE","MEAN_ELEMENT_THEORY":"SGP4","FILE":"3100831","CENTER_NAME":"EARTH","REF_FRAME":"TEME","BSTAR":"0.00004966700000","EPOCH":"2021-08-21T10:53:41.799264","OBJECT_TYPE":"PAYLOAD","EPHEMERIS_TYPE":"0","LAUNCH_DATE":"2020-01-07","ECCENTRICITY":"0.00005500","SITE":"AFETR","SEMIMAJOR_AXIS":"6925.331","NORAD_CAT_ID":"44940","ELEMENT_SET_NO":"999","DECAY_DATE":null,"TLE_LINE2":"2 44940  53.0532 224.2023 0000550  53.0740 307.0300 15.06405573 89731","ARG_OF_PERICENTER":"53.0740","TIME_SYSTEM":"UTC","CLASSIFICATION_TYPE":"U","PERIAPSIS":"546.816","INCLINATION":"53.0532","OBJECT_NAME":"STARLINK-1091","MEAN_MOTION":"15.06405573","GP_ID":"183183745","PERIOD":"95.592","APOAPSIS":"547.577","OBJECT_ID":"2020-001AC","TLE_LINE1":"1 44940U 20001AC  21233.45395601  .00000459  00000-0  49667-4 0  9992","RA_OF_ASC_NODE":"224.2023","COUNTRY_CODE":"US","MEAN_MOTION_DDOT":"0.0000000000000","MEAN_ANOMALY":"307.0300"},{"LAUNCH_DATE":"2020-01-07","ECCENTRICITY":"0.00008620","SITE":"AFETR","NORAD_CAT_ID":"44941","SEMIMAJOR_AXIS":"6925.335","ELEMENT_SET_NO":"999","TLE_LINE2":"2 44941  53.0534 223.2097 0000862  33.5094 326.5950 15.06404522 89779","ARG_OF_PERICENTER":"33.5094","DECAY_DATE":null,"FILE":"3101032","CENTER_NAME":"EARTH","MEAN_MOTION_DOT":"0.00000535","REV_AT_EPOCH":"8977","RCS_SIZE":"LARGE","MEAN_ELEMENT_THEORY":"SGP4","EPOCH":"2021-08-21T16:12:10.792224","OBJECT_TYPE":"PAYLOAD","EPHEMERIS_TYPE":"0","REF_FRAME":"TEME","BSTAR":"0.00005476800000","GP_ID":"183213111","PERIOD":"95.592","APOAPSIS":"547.797","OBJECT_ID":"2020-001AD","COUNTRY_CODE":"US","MEAN_MOTION_DDOT":"0.0000000000000","MEAN_ANOMALY":"326.5950","TLE_LINE1":"1 44941U 20001AD  21233.67512491  .00000535  00000-0  54768-4 0  9998","RA_OF_ASC_NODE":"223.2097","TIME_SYSTEM":"UTC","CLASSIFICATION_TYPE":"U","OBJECT_NAME":"STARLINK-1094","MEAN_MOTION":"15.06404522","PERIAPSIS":"546.603","INCLINATION":"53.0534"},{"TLE_LINE2":"2 44942  53.0535 224.1730 0001159  81.5298 278.5822 15.06410353 89744","ARG_OF_PERICENTER":"81.5298","DECAY_DATE":null,"ECCENTRICITY":"0.00011590","LAUNCH_DATE":"2020-01-07","SITE":"AFETR","NORAD_CAT_ID":"44942","SEMIMAJOR_AXIS":"6925.317","ELEMENT_SET_NO":"999","EPOCH":"2021-08-21T11:04:18.886944","OBJECT_TYPE":"PAYLOAD","EPHEMERIS_TYPE":"0","REF_FRAME":"TEME","BSTAR":"-0.00001471400000","FILE":"3100992","CENTER_NAME":"EARTH","MEAN_MOTION_DOT":"-0.00000501","REV_AT_EPOCH":"8974","RCS_SIZE":"LARGE","MEAN_ELEMENT_THEORY":"SGP4","COUNTRY_CODE":"US","MEAN_MOTION_DDOT":"0.0000000000000","MEAN_ANOMALY":"278.5822","TLE_LINE1":"1 44942U 20001AE  21233.46132971 -.00000501  00000-0 -14714-4 0  9999","RA_OF_ASC_NODE":"224.1730","GP_ID":"183192107","APOAPSIS":"547.984","PERIOD":"95.591","OBJECT_ID":"2020-001AE","OBJECT_NAME":"STARLINK-1096","MEAN_MOTION":"15.06410353","PERIAPSIS":"546.379","INCLINATION":"53.0535","TIME_SYSTEM":"UTC","CLASSIFICATION_TYPE":"U"},{"TLE_LINE1":"1 44943U 20001AF  21233.96998724  .00000479  00000-0  51033-4 0  9998","RA_OF_ASC_NODE":"221.8910","COUNTRY_CODE":"US","MEAN_ANOMALY":"301.0546","MEAN_MOTION_DDOT":"0.0000000000000","APOAPSIS":"547.935","PERIOD":"95.591","GP_ID":"183211623","OBJECT_ID":"2020-001AF","INCLINATION":"53.0554","PERIAPSIS":"546.388","OBJECT_NAME":"STARLINK-1100","MEAN_MOTION":"15.06417023","TIME_SYSTEM":"UTC","CLASSIFICATION_TYPE":"U","DECAY_DATE":null,"ARG_OF_PERICENTER":"59.0553","TLE_LINE2":"2 44943  53.0554 221.8910 0001117  59.0553 301.0546 15.06417023 89812","SITE":"AFETR","LAUNCH_DATE":"2020-01-07","ECCENTRICITY":"0.00011170","ELEMENT_SET_NO":"999","NORAD_CAT_ID":"44943","SEMIMAJOR_AXIS":"6925.296","REF_FRAME":"TEME","BSTAR":"0.00005103300000","OBJECT_TYPE":"PAYLOAD","EPOCH":"2021-08-21T23:16:46.897536","EPHEMERIS_TYPE":"0","REV_AT_EPOCH":"8981","MEAN_MOTION_DOT":"0.00000479","MEAN_ELEMENT_THEORY":"SGP4","RCS_SIZE":"LARGE","FILE":"3101032","CENTER_NAME":"EARTH"},{"SEMIMAJOR_AXIS":"6925.381","NORAD_CAT_ID":"44944","ELEMENT_SET_NO":"999","ECCENTRICITY":"0.00008210","LAUNCH_DATE":"2020-01-07","SITE":"AFETR","DECAY_DATE":null,"TLE_LINE2":"2 44944  53.0534 223.1612 0000821  50.5723 309.5339 15.06389291 89774","ARG_OF_PERICENTER":"50.5723","RCS_SIZE":"LARGE","MEAN_ELEMENT_THEORY":"SGP4","MEAN_MOTION_DOT":"0.00000351","REV_AT_EPOCH":"8977","CENTER_NAME":"EARTH","FILE":"3101032","BSTAR":"0.00004243500000","REF_FRAME":"TEME","EPHEMERIS_TYPE":"0","EPOCH":"2021-08-21T16:28:06.549888","OBJECT_TYPE":"PAYLOAD","OBJECT_ID":"2020-001AG","GP_ID":"183212874","APOAPSIS":"547.815","PERIOD":"95.593","RA_OF_ASC_NODE":"223.1612","TLE_LINE1":"1 44944U 20001AG  21233.68618692  .00000351  00000-0  42435-4 0  9996","MEAN_MOTION_DDOT":"0.0000000000000","MEAN_ANOMALY":"309.5339","COUNTRY_CODE":"US","CLASSIFICATION_TYPE":"U","TIME_SYSTEM":"UTC","PERIAPSIS":"546.678","INCLINATION":"53.0534","MEAN_MOTION":"15.06389291","OBJECT_NAME":"STARLINK-1108"},{"ARG_OF_PERICENTER":"56.6567","TLE_LINE2":"2 44945  53.0530 224.2211 0001094  56.6567 303.4527 15.06393456 89730","DECAY_DATE":null,"SITE":"AFETR","LAUNCH_DATE":"2020-01-07","ECCENTRICITY":"0.00010940","ELEMENT_SET_NO":"999","SEMIMAJOR_AXIS":"6925.369","NORAD_CAT_ID":"44945","OBJECT_TYPE":"PAYLOAD","EPOCH":"2021-08-21T10:48:25.630560","EPHEMERIS_TYPE":"0","REF_FRAME":"TEME","BSTAR":"0.00004803500000","FILE":"3100831","CENTER_NAME":"EARTH","REV_AT_EPOCH":"8973","MEAN_MOTION_DOT":"0.00000434","MEAN_ELEMENT_THEORY":"SGP4","RCS_SIZE":"LARGE","COUNTRY_CODE":"US","MEAN_MOTION_DDOT":"0.0000000000000","MEAN_ANOMALY":"303.4527","TLE_LINE1":"1 44945U 20001AH  21233.45029665  .00000434  00000-0  48035-4 0  9992","RA_OF_ASC_NODE":"224.2211","PERIOD":"95.593","APOAPSIS":"547.991","GP_ID":"183184497","OBJECT_ID":"2020-001AH","OBJECT_NAME":"STARLINK-1109","MEAN_MOTION":"15.06393456","INCLINATION":"53.0530","PERIAPSIS":"546.476","TIME_SYSTEM":"UTC","CLASSIFICATION_TYPE":"U"},{"APOAPSIS":"544.299","PERIOD":"95.511","GP_ID":"183211876","OBJECT_ID":"2020-001AJ","COUNTRY_CODE":"US","MEAN_MOTION_DDOT":"0.0000000000000","MEAN_ANOMALY":"337.8973","TLE_LINE1":"1 44946U 20001AJ  21233.65797637  .00000979  00000-0  81959-4 0  9992","RA_OF_ASC_NODE":"220.5023","TIME_SYSTEM":"UTC","CLASSIFICATION_TYPE":"U","OBJECT_NAME":"STARLINK-1110","MEAN_MOTION":"15.07676058","INCLINATION":"53.0036","PERIAPSIS":"542.311","SITE":"AFETR","ECCENTRICITY":"0.00014360","LAUNCH_DATE":"2020-01-07","ELEMENT_SET_NO":"999","NORAD_CAT_ID":"44946","SEMIMAJOR_AXIS":"6921.440","ARG_OF_PERICENTER":"22.2077","TLE_LINE2":"2 44946  53.0036 220.5023 0001436  22.2077 337.8973 15.07676058 89792","DECAY_DATE":null,"FILE":"3101032","CENTER_NAME":"EARTH","REV_AT_EPOCH":"8979","MEAN_MOTION_DOT":"0.00000979","MEAN_ELEMENT_THEORY":"SGP4","RCS_SIZE":"LARGE","OBJECT_TYPE":"PAYLOAD","EPOCH":"2021-08-21T15:47:29.158368","EPHEMERIS_TYPE":"0","REF_FRAME":"TEME","BSTAR":"0.00008195900000"},{"COUNTRY_CODE":"US","MEAN_MOTION_DDOT":"0.0000000000000","MEAN_ANOMALY":"308.4512","TLE_LINE1":"1 44947U 20001AK  21233.67142906  .00000458  00000-0  49650-4 0  9992","RA_OF_ASC_NODE":"223.2259","PERIOD":"95.592","APOAPSIS":"547.817","GP_ID":"183212124","OBJECT_ID":"2020-001AK","OBJECT_NAME":"STARLINK-1116","MEAN_MOTION":"15.06405636","INCLINATION":"53.0529","PERIAPSIS":"546.576","TIME_SYSTEM":"UTC","CLASSIFICATION_TYPE":"U","ARG_OF_PERICENTER":"51.6558","TLE_LINE2":"2 44947  53.0529 223.2259 0000896  51.6558 308.4512 15.06405636 89772","DECAY_DATE":null,"SITE":"AFETR","LAUNCH_DATE":"2020-01-07","ECCENTRICITY":"0.00008960","ELEMENT_SET_NO":"999","SEMIMAJOR_AXIS":"6925.331","NORAD_CAT_ID":"44947","OBJECT_TYPE":"PAYLOAD","EPOCH":"2021-08-21T16:06:51.470784","EPHEMERIS_TYPE":"0","REF_FRAME":"TEME","BSTAR":"0.00004965000000","FILE":"3101032","CENTER_NAME":"EARTH","REV_AT_EPOCH":"8977","MEAN_MOTION_DOT":"0.00000458","MEAN_ELEMENT_THEORY":"SGP4","RCS_SIZE":"LARGE"},{"ARG_OF_PERICENTER":"49.9793","TLE_LINE2":"2 44949  53.0545 223.1094 0000634  49.9793 310.1251 15.06386410 89777","DECAY_DATE":null,"SITE":"AFETR","LAUNCH_DATE":"2020-01-07","ECCENTRICITY":"0.00006340","ELEMENT_SET_NO":"999","SEMIMAJOR_AXIS":"6925.390","NORAD_CAT_ID":"44949","OBJECT_TYPE":"PAYLOAD","EPOCH":"2021-08-21T16:44:02.478624","EPHEMERIS_TYPE":"0","REF_FRAME":"TEME","BSTAR":"0.00004618600000","FILE":"3101032","CENTER_NAME":"EARTH","REV_AT_EPOCH":"8977","MEAN_MOTION_DOT":"0.00000407","MEAN_ELEMENT_THEORY":"SGP4","RCS_SIZE":"LARGE","COUNTRY_CODE":"US","MEAN_MOTION_DDOT":"0.0000000000000","MEAN_ANOMALY":"310.1251","TLE_LINE1":"1 44949U 20001AM  21233.69725091  .00000407  00000-0  46186-4 0  9993","RA_OF_ASC_NODE":"223.1094","APOAPSIS":"547.694","PERIOD":"95.593","GP_ID":"183212374","OBJECT_ID":"2020-001AM","OBJECT_NAME":"STARLINK-1122","MEAN_MOTION":"15.06386410","INCLINATION":"53.0545","PERIAPSIS":"546.816","TIME_SYSTEM":"UTC","CLASSIFICATION_TYPE":"U"},{"OBJECT_TYPE":"PAYLOAD","EPOCH":"2021-08-21T17:05:13.457184","EPHEMERIS_TYPE":"0","REF_FRAME":"TEME","BSTAR":"0.00003919600000","FILE":"3101032","CENTER_NAME":"EARTH","REV_AT_EPOCH":"8977","MEAN_MOTION_DOT":"0.00000303","MEAN_ELEMENT_THEORY":"SGP4","RCS_SIZE":"LARGE","ARG_OF_PERICENTER":"59.5703","TLE_LINE2":"2 44950  53.0549 223.0469 0000757  59.5703 300.5360 15.06408841 89779","DECAY_DATE":null,"SITE":"AFETR","LAUNCH_DATE":"2020-01-07","ECCENTRICITY":"0.00007570","ELEMENT_SET_NO":"999","SEMIMAJOR_AXIS":"6925.321","NORAD_CAT_ID":"44950","OBJECT_NAME":"STARLINK-1125","MEAN_MOTION":"15.06408841","INCLINATION":"53.0549","PERIAPSIS":"546.662","TIME_SYSTEM":"UTC","CLASSIFICATION_TYPE":"U","COUNTRY_CODE":"US","MEAN_MOTION_DDOT":"0.0000000000000","MEAN_ANOMALY":"300.5360","TLE_LINE1":"1 44950U 20001AN  21233.71196131  .00000303  00000-0  39196-4 0  9993","RA_OF_ASC_NODE":"223.0469","PERIOD":"95.592","APOAPSIS":"547.711","GP_ID":"183213112","OBJECT_ID":"2020-001AN"}];
